start=new Date('2021-12-06T00:00:00.000Z').valueOf();
sats=[{"LAUNCH_DATE":"2021-04-29","MEAN_MOTION_DOT":"-0.00000946","ELEMENT_SET_NO":"999","MEAN_ANOMALY":"292.0973","MEAN_MOTION":"15.06380125","NORAD_CAT_ID":"48294","REV_AT_EPOCH":"3397","GP_ID":"191170368","REF_FRAME":"TEME","MEAN_ELEMENT_THEORY":"SGP4","SITE":"AFETR","EPOCH":"2021-12-05T22:00:50.798304","ECCENTRICITY":"0.00020920","COUNTRY_CODE":"US","CENTER_NAME":"EARTH","DECAY_DATE":null,"EPHEMERIS_TYPE":"0","OBJECT_TYPE":"PAYLOAD","FILE":"3233515","RA_OF_ASC_NODE":"221.2741","MEAN_MOTION_DDOT":"0.0000000000000","RCS_SIZE":"LARGE","OBJECT_ID":"2021-036U","TLE_LINE2":"2 48294  53.0551 221.2741 0002092  68.0238 292.0973 15.06380125 33972","INCLINATION":"53.0551","PERIOD":"95.593","OBJECT_NAME":"STARLINK-2533","ARG_OF_PERICENTER":"68.0238","CLASSIFICATION_TYPE":"U","BSTAR":"-0.00004462600000","PERIAPSIS":"545.826","APOAPSIS":"548.723","TIME_SYSTEM":"UTC","TLE_LINE1":"1 48294U 21036U   21339.91725461 -.00000946  00000-0 -44626-4 0  9999","SEMIMAJOR_AXIS":"6925.409"},{"SITE":"AFETR","REF_FRAME":"TEME","MEAN_ELEMENT_THEORY":"SGP4","EPOCH":"2021-12-05T21:55:32.189664","ECCENTRICITY":"0.00021320","COUNTRY_CODE":"US","DECAY_DATE":null,"CENTER_NAME":"EARTH","MEAN_MOTION_DOT":"0.00001269","ELEMENT_SET_NO":"999","LAUNCH_DATE":"2021-04-29","MEAN_MOTION":"15.06382181","MEAN_ANOMALY":"289.7374","NORAD_CAT_ID":"48295","GP_ID":"191170118","REV_AT_EPOCH":"3397","OBJECT_NAME":"STARLINK-2535","APOAPSIS":"548.745","PERIAPSIS":"545.792","BSTAR":"0.00010413000000","ARG_OF_PERICENTER":"70.3844","CLASSIFICATION_TYPE":"U","TLE_LINE1":"1 48295U 21036V   21339.91356701  .00001269  00000-0  10413-3 0  9990","TIME_SYSTEM":"UTC","SEMIMAJOR_AXIS":"6925.403","OBJECT_TYPE":"PAYLOAD","EPHEMERIS_TYPE":"0","RA_OF_ASC_NODE":"221.2850","MEAN_MOTION_DDOT":"0.0000000000000","FILE":"3233515","RCS_SIZE":"LARGE","PERIOD":"95.593","INCLINATION":"53.0527","OBJECT_ID":"2021-036V","TLE_LINE2":"2 48295  53.0527 221.2850 0002132  70.3844 289.7374 15.06382181 33973"},{"OBJECT_TYPE":"PAYLOAD","EPHEMERIS_TYPE":"0","RA_OF_ASC_NODE":"221.3026","MEAN_MOTION_DDOT":"0.0000000000000","FILE":"3233515","RCS_SIZE":"LARGE","PERIOD":"95.593","INCLINATION":"53.0542","OBJECT_ID":"2021-036W","TLE_LINE2":"2 48296  53.0542 221.3026 0002096  75.6863 284.4358 15.06384571 33974","OBJECT_NAME":"STARLINK-2546","APOAPSIS":"548.712","PERIAPSIS":"545.809","BSTAR":"0.00011751000000","ARG_OF_PERICENTER":"75.6863","CLASSIFICATION_TYPE":"U","TLE_LINE1":"1 48296U 21036W   21339.90987971  .00001468  00000-0  11751-3 0  9996","TIME_SYSTEM":"UTC","SEMIMAJOR_AXIS":"6925.396","MEAN_MOTION_DOT":"0.00001468","ELEMENT_SET_NO":"999","LAUNCH_DATE":"2021-04-29","MEAN_MOTION":"15.06384571","MEAN_ANOMALY":"284.4358","NORAD_CAT_ID":"48296","GP_ID":"191171370","REV_AT_EPOCH":"3397","SITE":"AFETR","MEAN_ELEMENT_THEORY":"SGP4","REF_FRAME":"TEME","EPOCH":"2021-12-05T21:50:13.606944","COUNTRY_CODE":"US","ECCENTRICITY":"0.00020960","DECAY_DATE":null,"CENTER_NAME":"EARTH"},{"ECCENTRICITY":"0.00021630","COUNTRY_CODE":"US","DECAY_DATE":null,"CENTER_NAME":"EARTH","REF_FRAME":"TEME","MEAN_ELEMENT_THEORY":"SGP4","SITE":"AFETR","EPOCH":"2021-12-05T21:44:55.242816","NORAD_CAT_ID":"48297","REV_AT_EPOCH":"3397","GP_ID":"191171120","LAUNCH_DATE":"2021-04-29","ELEMENT_SET_NO":"999","MEAN_MOTION_DOT":"0.00001103","MEAN_MOTION":"15.06383900","MEAN_ANOMALY":"298.1227","TLE_LINE1":"1 48297U 21036X   21339.90619494  .00001103  00000-0  93000-4 0  9993","TIME_SYSTEM":"UTC","SEMIMAJOR_AXIS":"6925.398","OBJECT_NAME":"STARLINK-2544","CLASSIFICATION_TYPE":"U","ARG_OF_PERICENTER":"61.9981","APOAPSIS":"548.761","PERIAPSIS":"545.765","BSTAR":"0.00009300000000","RCS_SIZE":"LARGE","INCLINATION":"53.0535","OBJECT_ID":"2021-036X","TLE_LINE2":"2 48297  53.0535 221.3195 0002163  61.9981 298.1227 15.06383900 33970","PERIOD":"95.593","EPHEMERIS_TYPE":"0","OBJECT_TYPE":"PAYLOAD","RA_OF_ASC_NODE":"221.3195","MEAN_MOTION_DDOT":"0.0000000000000","FILE":"3233515"},{"SEMIMAJOR_AXIS":"6925.396","TLE_LINE1":"1 48298U 21036Y   21339.90250770  .00000964  00000-0  83677-4 0  9995","TIME_SYSTEM":"UTC","APOAPSIS":"548.601","PERIAPSIS":"545.922","BSTAR":"0.00008367700000","ARG_OF_PERICENTER":"72.2189","CLASSIFICATION_TYPE":"U","OBJECT_NAME":"STARLINK-2559","PERIOD":"95.593","INCLINATION":"53.0536","OBJECT_ID":"2021-036Y","TLE_LINE2":"2 48298  53.0536 221.3353 0001934  72.2189 287.9011 15.06384379 33976","RCS_SIZE":"LARGE","MEAN_MOTION_DDOT":"0.0000000000000","RA_OF_ASC_NODE":"221.3353","FILE":"3233515","OBJECT_TYPE":"PAYLOAD","EPHEMERIS_TYPE":"0","DECAY_DATE":null,"CENTER_NAME":"EARTH","COUNTRY_CODE":"US","ECCENTRICITY":"0.00019340","EPOCH":"2021-12-05T21:39:36.665280","SITE":"AFETR","REF_FRAME":"TEME","MEAN_ELEMENT_THEORY":"SGP4","GP_ID":"191169868","REV_AT_EPOCH":"3397","NORAD_CAT_ID":"48298","MEAN_MOTION":"15.06384379","MEAN_ANOMALY":"287.9011","MEAN_MOTION_DOT":"0.00000964","ELEMENT_SET_NO":"999","LAUNCH_DATE":"2021-04-29"},{"REV_AT_EPOCH":"3398","GP_ID":"191170619","NORAD_CAT_ID":"48299","MEAN_ANOMALY":"289.6533","MEAN_MOTION":"15.06398915","LAUNCH_DATE":"2021-04-29","MEAN_MOTION_DOT":"0.00000168","ELEMENT_SET_NO":"999","CENTER_NAME":"EARTH","DECAY_DATE":null,"ECCENTRICITY":"0.00019260","COUNTRY_CODE":"US","EPOCH":"2021-12-05T23:09:49.978656","MEAN_ELEMENT_THEORY":"SGP4","REF_FRAME":"TEME","SITE":"AFETR","TLE_LINE2":"2 48299  53.0572 221.0512 0001926  70.4664 289.6533 15.06398915 33980","OBJECT_ID":"2021-036Z","INCLINATION":"53.0572","PERIOD":"95.592","RCS_SIZE":"LARGE","FILE":"3233515","MEAN_MOTION_DDOT":"0.0000000000000","RA_OF_ASC_NODE":"221.0512","EPHEMERIS_TYPE":"0","OBJECT_TYPE":"PAYLOAD","SEMIMAJOR_AXIS":"6925.352","TIME_SYSTEM":"UTC","TLE_LINE1":"1 48299U 21036Z   21339.96516179  .00000168  00000-0  30201-4 0  9991","ARG_OF_PERICENTER":"70.4664","CLASSIFICATION_TYPE":"U","BSTAR":"0.00003020100000","PERIAPSIS":"545.883","APOAPSIS":"548.551","OBJECT_NAME":"STARLINK-2557"},{"BSTAR":"0.00013615000000","APOAPSIS":"548.720","PERIAPSIS":"545.784","ARG_OF_PERICENTER":"65.5836","CLASSIFICATION_TYPE":"U","OBJECT_NAME":"STARLINK-2538","SEMIMAJOR_AXIS":"6925.387","TIME_SYSTEM":"UTC","TLE_LINE1":"1 48300U 21036AA  21339.89052488  .00001746  00000-0  13615-3 0  9996","FILE":"3233515","RA_OF_ASC_NODE":"231.3904","MEAN_MOTION_DDOT":"0.0000000000000","OBJECT_TYPE":"PAYLOAD","EPHEMERIS_TYPE":"0","PERIOD":"95.593","OBJECT_ID":"2021-036AA","TLE_LINE2":"2 48300  53.0564 231.3904 0002120  65.5836 294.5374 15.06387438 33836","INCLINATION":"53.0564","RCS_SIZE":"LARGE","EPOCH":"2021-12-05T21:22:21.349632","SITE":"AFETR","MEAN_ELEMENT_THEORY":"SGP4","REF_FRAME":"TEME","CENTER_NAME":"EARTH","DECAY_DATE":null,"COUNTRY_CODE":"US","ECCENTRICITY":"0.00021200","MEAN_ANOMALY":"294.5374","MEAN_MOTION":"15.06387438","ELEMENT_SET_NO":"999","MEAN_MOTION_DOT":"0.00001746","LAUNCH_DATE":"2021-04-29","GP_ID":"191170870","REV_AT_EPOCH":"3383","NORAD_CAT_ID":"48300"},{"EPOCH":"2021-12-05T22:52:35.455296","SITE":"AFETR","REF_FRAME":"TEME","MEAN_ELEMENT_THEORY":"SGP4","CENTER_NAME":"EARTH","DECAY_DATE":null,"COUNTRY_CODE":"US","ECCENTRICITY":"0.00021640","MEAN_ANOMALY":"291.3513","MEAN_MOTION":"15.06384177","ELEMENT_SET_NO":"999","MEAN_MOTION_DOT":"0.00001921","LAUNCH_DATE":"2021-04-29","GP_ID":"191171621","REV_AT_EPOCH":"3383","NORAD_CAT_ID":"48301","BSTAR":"0.00014793000000","PERIAPSIS":"545.763","APOAPSIS":"548.761","CLASSIFICATION_TYPE":"U","ARG_OF_PERICENTER":"68.7707","OBJECT_NAME":"STARLINK-2537","SEMIMAJOR_AXIS":"6925.397","TIME_SYSTEM":"UTC","TLE_LINE1":"1 48301U 21036AB  21339.95318814  .00001921  00000-0  14793-3 0  9995","FILE":"3233515","MEAN_MOTION_DDOT":"0.0000000000000","RA_OF_ASC_NODE":"231.0919","OBJECT_TYPE":"PAYLOAD","EPHEMERIS_TYPE":"0","PERIOD":"95.593","TLE_LINE2":"2 48301  53.0535 231.0919 0002164  68.7707 291.3513 15.06384177 33835","OBJECT_ID":"2021-036AB","INCLINATION":"53.0535","RCS_SIZE":"LARGE"},{"RA_OF_ASC_NODE":"231.1151","MEAN_MOTION_DDOT":"0.0000000000000","FILE":"3233515","EPHEMERIS_TYPE":"0","OBJECT_TYPE":"PAYLOAD","INCLINATION":"53.0562","TLE_LINE2":"2 48302  53.0562 231.1151 0002612  63.5700 296.5557 15.06389932 33838","OBJECT_ID":"2021-036AC","PERIOD":"95.593","RCS_SIZE":"LARGE","CLASSIFICATION_TYPE":"U","ARG_OF_PERICENTER":"63.5700","PERIAPSIS":"545.436","APOAPSIS":"549.053","BSTAR":"0.00001675000000","OBJECT_NAME":"STARLINK-2556","SEMIMAJOR_AXIS":"6925.379","TLE_LINE1":"1 48302U 21036AC  21339.94949864 -.00000033  00000-0  16750-4 0  9990","TIME_SYSTEM":"UTC","MEAN_MOTION":"15.06389932","MEAN_ANOMALY":"296.5557","LAUNCH_DATE":"2021-04-29","ELEMENT_SET_NO":"999","MEAN_MOTION_DOT":"-0.00000033","REV_AT_EPOCH":"3383","GP_ID":"191170369","NORAD_CAT_ID":"48302","EPOCH":"2021-12-05T22:47:16.682496","MEAN_ELEMENT_THEORY":"SGP4","REF_FRAME":"TEME","SITE":"AFETR","DECAY_DATE":null,"CENTER_NAME":"EARTH","COUNTRY_CODE":"US","ECCENTRICITY":"0.00026120"},{"TIME_SYSTEM":"UTC","TLE_LINE1":"1 48303U 21036AD  21339.94580877 -.00001375  00000-0 -73437-4 0  9992","SEMIMAJOR_AXIS":"6925.383","OBJECT_NAME":"STARLINK-2530","CLASSIFICATION_TYPE":"U","ARG_OF_PERICENTER":"63.1899","BSTAR":"-0.00007343700000","PERIAPSIS":"545.769","APOAPSIS":"548.728","RCS_SIZE":"LARGE","TLE_LINE2":"2 48303  53.0538 231.1228 0002136  63.1899 296.9308 15.06388619 33832","OBJECT_ID":"2021-036AD","INCLINATION":"53.0538","PERIOD":"95.593","EPHEMERIS_TYPE":"0","OBJECT_TYPE":"PAYLOAD","FILE":"3233515","RA_OF_ASC_NODE":"231.1228","MEAN_MOTION_DDOT":"0.0000000000000","ECCENTRICITY":"0.00021360","COUNTRY_CODE":"US","CENTER_NAME":"EARTH","DECAY_DATE":null,"MEAN_ELEMENT_THEORY":"SGP4","REF_FRAME":"TEME","SITE":"AFETR","EPOCH":"2021-12-05T22:41:57.877728","NORAD_CAT_ID":"48303","REV_AT_EPOCH":"3383","GP_ID":"191170119","LAUNCH_DATE":"2021-04-29","MEAN_MOTION_DOT":"-0.00001375","ELEMENT_SET_NO":"999","MEAN_ANOMALY":"296.9308","MEAN_MOTION":"15.06388619"}];
